CCSDS_OMM_VERS,COMMENT,CREATION_DATE,ORIGINATOR,OBJECT_NAME,OBJECT_ID,CENTER_NAME,REF_FRAME,TIME_SYSTEM,MEAN_ELEMENT_THEORY,EPOCH,MEAN_MOTION,ECCENTRICITY,INCLINATION,RA_OF_ASC_NODE,ARG_OF_PERICENTER,MEAN_ANOMALY,EPHEMERIS_TYPE,CLASSIFICATION_TYPE,NORAD_CAT_ID,ELEMENT_SET_NO,REV_AT_EPOCH,BSTAR,MEAN_MOTION_DOT,MEAN_MOTION_DDOT,SEMIMAJOR_AXIS,PERIOD,APOAPSIS,PERIAPSIS,OBJECT_TYPE,RCS_SIZE,COUNTRY_CODE,LAUNCH_DATE,SITE,DECAY_DATE,FILE,GP_ID,TLE_LINE0,TLE_LINE1,TLE_LINE2
"2.0","GENERATED VIA SPACE-TRACK.ORG API","2020-02-24T15:06:17","18 SPCS","SL-18 DEB","1993-014BJ","EARTH","TEME","UTC","SGP4","2020-02-24T08:56:12.596064","14.80158933","0.00629210","75.7411","36.4153","148.9985","211.4940","0","U","35359","999","66606","0.00040371000000","0.00003152","0.0000000000000","7006.959","97.286","672.912","584.736","DEBRIS","SMALL","CIS","1993-03-25","PKMTR","","2709093","149398763","0 SL-18 DEB","1 35359U 93014BJ  20055.37236801  .00003152  00000-0  40371-3 0  9993","2 35359  75.7411  36.4153 0062921 148.9985 211.4940 14.80158933666065"
"2.0","GENERATED VIA SPACE-TRACK.ORG API","2020-02-24T06:26:15","18 SPCS","IRIDIUM 176","2019-002B","EARTH","TEME","UTC","SGP4","2020-02-24T02:27:03.800448","14.72252729","0.00023120","86.6089","236.8448","95.7650","264.3831","0","U","43923","999","6010","0.00000132540000","0.00000033","0.0000000000000","7032.022","97.809","655.513","652.261","PAYLOAD","LARGE","US","2019-01-11","AFWTR","","2708801","149392376","0 IRIDIUM 176","1 43923U 19002B   20055.10212732  .00000033  00000-0  13254-5 0  9999","2 43923  86.6089 236.8448 0002312  95.7650 264.3831 14.72252729 60100"
"2.0","GENERATED VIA SPACE-TRACK.ORG API","2020-02-24T02:48:55","18 SPCS","SL-18 DEB","1993-014BJ","EARTH","TEME","UTC","SGP4","2020-02-23T15:05:32.707392","14.80154272","0.00629540","75.7409","37.7271","150.9179","209.5538","0","U","35359","999","66529","0.00039708000000","0.00003100","0.0000000000000","7006.974","97.287","672.950","584.727","DEBRIS","SMALL","CIS","1993-03-25","PKMTR","","2708763","149384270","0 SL-18 DEB","1 35359U 93014BJ  20054.62885078 +.00003100 +00000-0 +39708-3 0  9991","2 35359 075.7409 037.7271 0062954 150.9179 209.5538 14.80154272665298"
"2.0","GENERATED VIA SPACE-TRACK.ORG API","2020-02-24T02:48:55","18 SPCS","IRIDIUM 176","2019-002B","EARTH","TEME","UTC","SGP4","2020-02-23T13:24:04.525344","14.72252685","0.00023110","86.6088","237.0721","95.9637","264.1843","0","U","43923","999","6002","0.00000072944000","0.00000029","0.0000000000000","7032.022","97.809","655.512","652.262","PAYLOAD","LARGE","US","2019-01-11","AFWTR","","2708763","149390609","0 IRIDIUM 176","1 43923U 19002B   20054.55838571 +.00000029 +00000-0 +72944-6 0  9999","2 43923 086.6088 237.0721 0002311 095.9637 264.1843 14.72252685060025"
"2.0","GENERATED VIA SPACE-TRACK.ORG API","2020-02-23T19:25:00","18 SPCS","IRIDIUM 176","2019-002B","EARTH","TEME","UTC","SGP4","2020-02-23T11:46:12.116928","14.72252688","0.00023110","86.6088","237.1005","95.9599","264.1882","0","U","43923","999","6001","0.00000122020000","0.00000032","0.0000000000000","7032.022","97.809","655.512","652.262","PAYLOAD","LARGE","US","2019-01-11","AFWTR","","2708573","149347505","0 IRIDIUM 176","1 43923U 19002B   20054.49041802 +.00000032 +00000-0 +12202-5 0  9999","2 43923 086.6088 237.1005 0002311 095.9599 264.1882 14.72252688060013"
"2.0","GENERATED VIA SPACE-TRACK.ORG API","2020-02-23T19:25:00","18 SPCS","SL-18 DEB","1993-014BJ","EARTH","TEME","UTC","SGP4","2020-02-23T08:36:12.690144","14.80152850","0.00629790","75.7409","38.2040","151.6007","208.8636","0","U","35359","999","66525","0.00040607000000","0.00003170","0.0000000000000","7006.978","97.287","672.972","584.714","DEBRIS","SMALL","CIS","1993-03-25","PKMTR","","2708573","149341164","0 SL-18 DEB","1 35359U 93014BJ  20054.35848021 +.00003170 +00000-0 +40607-3 0  9995","2 35359 075.7409 038.2040 0062979 151.6007 208.8636 14.80152850665250"
"2.0","GENERATED VIA SPACE-TRACK.ORG API","2020-02-23T06:26:15","18 SPCS","IRIDIUM 176","2019-002B","EARTH","TEME","UTC","SGP4","2020-02-23T01:58:57.656064","14.72252688","0.00023020","86.6088","237.2710","95.9078","264.2401","0","U","43923","999","5995","0.00000127960000","0.00000033","0.0000000000000","7032.022","97.809","655.506","652.269","PAYLOAD","LARGE","US","2019-01-11","AFWTR","","2708251","149321383","0 IRIDIUM 176","1 43923U 19002B   20054.08261176  .00000033  00000-0  12796-5 0  9991","2 43923  86.6088 237.2710 0002302  95.9078 264.2401 14.72252688 59958"
"2.0","GENERATED VIA SPACE-TRACK.ORG API","2020-02-23T06:46:17","18 SPCS","SL-18 DEB","1993-014BJ","EARTH","TEME","UTC","SGP4","2020-02-22T22:52:12.601632","14.80150720","0.00630210","75.7406","38.9197","152.6448","207.8081","0","U","35359","999","66585","0.00041714000000","0.00003257","0.0000000000000","7006.985","97.287","673.009","584.691","DEBRIS","SMALL","CIS","1993-03-25","PKMTR","","2708347","149323695","0 SL-18 DEB","1 35359U 93014BJ  20053.95292363  .00003257  00000-0  41714-3 0  9998","2 35359  75.7406  38.9197 0063021 152.6448 207.8081 14.80150720665859"
"2.0","GENERATED VIA SPACE-TRACK.ORG API","2020-02-22T17:39:40","18 SPCS","IRIDIUM 176","2019-002B","EARTH","TEME","UTC","SGP4","2020-02-22T12:55:58.378368","14.72252711","0.00022920","86.6088","237.4983","95.7399","264.4080","0","U","43923","999","5987","0.00000369010000","0.00000048","0.0000000000000","7032.022","97.809","655.499","652.275","PAYLOAD","LARGE","US","2019-01-11","AFWTR","","2708018","149296156","0 IRIDIUM 176","1 43923U 19002B   20053.53887012 +.00000048 +00000-0 +36901-5 0  9993","2 43923 086.6088 237.4983 0002292 095.7399 264.4080 14.72252711059877"
"2.0","GENERATED VIA SPACE-TRACK.ORG API","2020-02-22T17:39:40","18 SPCS","SL-18 DEB","1993-014BJ","EARTH","TEME","UTC","SGP4","2020-02-22T08:16:12.409248","14.80146857","0.00630460","75.7406","39.9931","154.2213","206.2139","0","U","35359","999","66510","0.00043503000000","0.00003398","0.0000000000000","7006.997","97.287","673.038","584.686","DEBRIS","SMALL","CIS","1993-03-25","PKMTR","","2708018","149289817","0 SL-18 DEB","1 35359U 93014BJ  20053.34458807 +.00003398 +00000-0 +43503-3 0  9992","2 35359 075.7406 039.9931 0063046 154.2213 206.2139 14.80146857665102"
"2.0","GENERATED VIA SPACE-TRACK.ORG API","2020-02-22T06:36:14","18 SPCS","IRIDIUM 176","2019-002B","EARTH","TEME","UTC","SGP4","2020-02-22T01:30:51.509088","14.72252686","0.00022840","86.6088","237.6972","95.6838","264.4640","0","U","43923","999","5980","0.00000367900000","0.00000048","0.0000000000000","7032.022","97.809","655.493","652.281","PAYLOAD","LARGE","US","2019-01-11","AFWTR","","2707678","149269684","0 IRIDIUM 176","1 43923U 19002B   20053.06309617  .00000048  00000-0  36790-5 0  9997","2 43923  86.6088 237.6972 0002284  95.6838 264.4640 14.72252686 59801"
"2.0","GENERATED VIA SPACE-TRACK.ORG API","2020-02-21T18:27:12","18 SPCS","IRIDIUM 176","2019-002B","EARTH","TEME","UTC","SGP4","2020-02-21T14:05:44.639808","14.72252675","0.00022830","86.6088","237.8961","95.6409","264.5069","0","U","43923","999","5973","0.00000411950000","0.00000051","0.0000000000000","7032.022","97.809","655.493","652.282","PAYLOAD","LARGE","US","2019-01-11","AFWTR","","2707433","149244792","0 IRIDIUM 176","1 43923U 19002B   20052.58732222 +.00000051 +00000-0 +41195-5 0  9994","2 43923 086.6088 237.8961 0002283 095.6409 264.5069 14.72252675059730"
"2.0","GENERATED VIA SPACE-TRACK.ORG API","2020-02-21T14:36:17","18 SPCS","SL-18 DEB","1993-014BJ","EARTH","TEME","UTC","SGP4","2020-02-21T09:33:31.813632","14.80140405","0.00630990","75.7406","41.6628","156.6739","203.7333","0","U","35359","999","66562","0.00044518000000","0.00003477","0.0000000000000","7007.017","97.288","673.096","584.669","DEBRIS","SMALL","CIS","1993-03-25","PKMTR","","2707368","149224281","0 SL-18 DEB","1 35359U 93014BJ  20052.39828488  .00003477  00000-0  44518-3 0  9997","2 35359  75.7406  41.6628 0063099 156.6739 203.7333 14.80140405665620"
"2.0","GENERATED VIA SPACE-TRACK.ORG API","2020-02-21T06:26:14","18 SPCS","IRIDIUM 176","2019-002B","EARTH","TEME","UTC","SGP4","2020-02-21T01:02:45.348288","14.72253011","0.00022370","86.6087","238.1234","95.5881","264.5591","0","U","43923","999","5965","0.00000443010000","0.00000053","0.0000000000000","7032.021","97.809","655.459","652.313","PAYLOAD","LARGE","US","2019-01-11","AFWTR","","2707111","149218401","0 IRIDIUM 176","1 43923U 19002B   20052.04358042  .00000053  00000-0  44301-5 0  9993","2 43923  86.6087 238.1234 0002237  95.5881 264.5591 14.72253011 59654"
"2.0","GENERATED VIA SPACE-TRACK.ORG API","2020-02-21T03:13:53","18 SPCS","SL-18 DEB","1993-014BJ","EARTH","TEME","UTC","SGP4","2020-02-20T15:42:51.098112","14.80135601","0.00631490","75.7406","42.9747","158.5888","201.7962","0","U","35359","999","66485","0.00046707000000","0.00003649","0.0000000000000","7007.033","97.288","673.146","584.649","DEBRIS","SMALL","CIS","1993-03-25","PKMTR","","2707073","149190820","0 SL-18 DEB","1 35359U 93014BJ  20051.65475808 +.00003649 +00000-0 +46707-3 0  9992","2 35359 075.7406 042.9747 0063149 158.5888 201.7962 14.80135601664850"
"2.0","GENERATED VIA SPACE-TRACK.ORG API","2020-02-20T21:37:49","18 SPCS","IRIDIUM 176","2019-002B","EARTH","TEME","UTC","SGP4","2020-02-20T13:37:38.559360","14.72240639","0.00021700","86.6087","238.3195","86.2407","273.9059","0","U","43923","999","5958","0.00000488680000","0.00000056","0.0000000000000","7032.061","97.810","655.452","652.400","PAYLOAD","LARGE","US","2019-01-11","AFWTR","","2706925","149174362","0 IRIDIUM 176","1 43923U 19002B   20051.56780740 +.00000056 +00000-0 +48868-5 0  9998","2 43923 086.6087 238.3195 0002170 086.2407 273.9059 14.72240639059586"
